{
    "links": {
        "self": "http://www.neowsapp.com/rest/v1/neo/3521512?api_key=iIulBulltgU6a56xZRHN4H3l9WmuAYTsLGpBGhQ2"
    },
    "id": "3521512",
    "neo_reference_id": "3521512",
    "name": "(2010 HZ104)",
    "designation": "2010 HZ104",
    "nasa_jpl_url": "http://ssd.jpl.nasa.gov/sbdb.cgi?sstr=3521512",
    "absolute_magnitude_h": 22.5,
    "estimated_diameter": {
        "kilometers": {
            "estimated_diameter_min": 0.0840533402,
            "estimated_diameter_max": 0.1879489824
        },
        "meters": {
            "estimated_diameter_min": 84.0533402073,
            "estimated_diameter_max": 187.9489824394
        },
        "miles": {
            "estimated_diameter_min": 0.0522283081,
            "estimated_diameter_max": 0.1167860472
        },
        "feet": {
            "estimated_diameter_min": 275.7655606856,
            "estimated_diameter_max": 616.6305395464
        }
    },
    "is_potentially_hazardous_asteroid": false,
    "close_approach_data": [
        {
            "close_approach_date": "2010-06-01",
            "close_approach_date_full": "2010-Jun-01 13:11",
            "epoch_date_close_approach": 1275397860000,
            "relative_velocity": {
                "kilometers_per_second": "14.0358024779",
                "kilometers_per_hour": "50528.88892039",
                "miles_per_hour": "31396.6865627834"
            },
            "miss_distance": {
                "astronomical": "0.0648344095",
                "lunar": "25.2205852955",
                "kilometers": "9699089.563907765",
                "miles": "6026734.791606557"
            },
            "orbiting_body": "Earth"
        }
    ],
    "orbital_data": {
        "orbit_id": "9",
        "orbit_determination_date": "2018-10-15 06:57:36",
        "first_observation_date": "2010-04-23",
        "last_observation_date": "2010-05-16",
        "data_arc_in_days": 23,
        "observations_used": 18,
        "orbit_uncertainty": "7",
        "minimum_orbit_intersection": ".030472",
        "jupiter_tisserand_invariant": "3.329",
        "epoch_osculation": "2459000.5",
        "eccentricity": ".5676257949271007",
        "semi_major_axis": "2.248717345717514",
        "inclination": "20.24792066386066",
        "ascending_node_longitude": "77.43631353696847",
        "orbital_period": "1231.688060865077",
        "perihelion_distance": ".9722873747882502",
        "perihelion_argument": "165.5455351844961",
        "aphelion_distance": "3.525147316646778",
        "perihelion_time": "2459039.891756360445",
        "mean_anomaly": "348.486506656726",
        "mean_motion": ".2922817971842269",
        "equinox": "J2000",
        "orbit_class": {
            "orbit_class_type": "APO",
            "orbit_class_description": "Near-Earth asteroid orbits which cross the Earth’s orbit similar to that of 1862 Apollo",
            "orbit_class_range": "a (semi-major axis) > 1.0 AU; q (perihelion) < 1.017 AU"
        }
    },
    "is_sentry_object": false
}